LEMUR-2-TARTIFLETTE     
1 66784U 25276DZ  26088.17433890  .00007953  00000+0  67579-3 0  9992
2 66784  97.5317 161.5918 0014670  52.2615 307.9935 14.98040829 18218
LEMUR-2-VUKASIN         
1 66785U 25276EA  26088.17124376  .00009687  00000+0  79594-3 0  9995
2 66785  97.5315 161.7299 0009842  51.5827 308.6279 14.99330723 18151
LEMUR-2-HOTSPUR-TOM     
1 66786U 25276EB  26088.16401633  .00009006  00000+0  76442-3 0  9993
2 66786  97.5312 161.5838 0015539  49.2700 310.9870 14.98037507 18145
LEMUR-2 FIKRETDENGIZ    
1 67363U 26004A   26087.97814184  .00006029  00000+0  66781-3 0  9999
2 67363  97.8022  87.8100 0010245  51.7501 308.4636 14.87639267 11353
LEMUR-2-CALLUM-K-J      
1 67364U 26004B   26087.97826089  .00003795  00000+0  42523-3 0  9992
2 67364  97.8063  87.8398 0009662  42.3014 317.8945 14.87403426 11368
LEMUR-2-MARIO-SOUSA     
1 67365U 26004C   26087.90344354  .00006305  00000+0  69542-3 0  9996
2 67365  97.8001  87.7357 0009821  53.2091 307.0025 14.87799043 11350
LEMUR-2-SONNENBLUME     
1 67367U 26004E   26087.96506428  .00005177  00000+0  57122-3 0  9993
2 67367  97.7990  87.7984 0009483  54.7725 305.4377 14.87867142 11367
LEMUR-2-WOBLER          
1 67368U 26004F   26088.23352453  .00007221  00000+0  79404-3 0  9991
2 67368  97.8049  88.1142 0009386  44.6431 315.5540 14.87879164 11405
LEMUR-2-GRAM-E-SUE      
1 67370U 26004H   26087.89084030  .00006537  00000+0  71697-3 0  9993
2 67370  97.7981  87.7333 0008670  57.8660 302.3396 14.88020651 11351
LEMUR-2-KATIE           
1 67387U 26004AA  26087.95865792  .00007196  00000+0  76276-3 0  9990
2 67387  97.8048  88.0082 0003623  30.3217 329.8209 14.89395566 11365
LEMUR-2-HCS-BAZUS       
1 67388U 26004AB  26087.75313459  .00005915  00000+0  62797-3 0  9997
2 67388  97.8035  87.8051 0002908  31.1883 328.9507 14.89408510 11330
