[{"OBJECT_NAME":"LEMUR-2-TARTIFLETTE","OBJECT_ID":"2025-276DZ","EPOCH":"2026-03-29T04:11:02.880960","MEAN_MOTION":14.98040829,"ECCENTRICITY":0.001467,"INCLINATION":97.5317,"RA_OF_ASC_NODE":161.5918,"ARG_OF_PERICENTER":52.2615,"MEAN_ANOMALY":307.9935,"EPHEMERIS_TYPE":0,"CLASSIFICATION_TYPE":"U","NORAD_CAT_ID":66784,"ELEMENT_SET_NO":999,"REV_AT_EPOCH":1821,"BSTAR":0.00067579,"MEAN_MOTION_DOT":7.953e-5,"MEAN_MOTION_DDOT":0},{"OBJECT_NAME":"LEMUR-2-VUKASIN","OBJECT_ID":"2025-276EA","EPOCH":"2026-03-29T04:06:35.460864","MEAN_MOTION":14.99330723,"ECCENTRICITY":0.0009842,"INCLINATION":97.5315,"RA_OF_ASC_NODE":161.7299,"ARG_OF_PERICENTER":51.5827,"MEAN_ANOMALY":308.6279,"EPHEMERIS_TYPE":0,"CLASSIFICATION_TYPE":"U","NORAD_CAT_ID":66785,"ELEMENT_SET_NO":999,"REV_AT_EPOCH":1815,"BSTAR":0.00079594,"MEAN_MOTION_DOT":9.687e-5,"MEAN_MOTION_DDOT":0},{"OBJECT_NAME":"LEMUR-2-HOTSPUR-TOM","OBJECT_ID":"2025-276EB","EPOCH":"2026-03-29T03:56:11.010912","MEAN_MOTION":14.98037507,"ECCENTRICITY":0.0015539,"INCLINATION":97.5312,"RA_OF_ASC_NODE":161.5838,"ARG_OF_PERICENTER":49.27,"MEAN_ANOMALY":310.987,"EPHEMERIS_TYPE":0,"CLASSIFICATION_TYPE":"U","NORAD_CAT_ID":66786,"ELEMENT_SET_NO":999,"REV_AT_EPOCH":1814,"BSTAR":0.00076442,"MEAN_MOTION_DOT":9.006e-5,"MEAN_MOTION_DDOT":0},{"OBJECT_NAME":"LEMUR-2 FIKRETDENGIZ","OBJECT_ID":"2026-004A","EPOCH":"2026-03-28T23:28:31.454976","MEAN_MOTION":14.87639267,"ECCENTRICITY":0.0010245,"INCLINATION":97.8022,"RA_OF_ASC_NODE":87.81,"ARG_OF_PERICENTER":51.7501,"MEAN_ANOMALY":308.4636,"EPHEMERIS_TYPE":0,"CLASSIFICATION_TYPE":"U","NORAD_CAT_ID":67363,"ELEMENT_SET_NO":999,"REV_AT_EPOCH":1135,"BSTAR":0.00066781,"MEAN_MOTION_DOT":6.029e-5,"MEAN_MOTION_DDOT":0},{"OBJECT_NAME":"LEMUR-2-CALLUM-K-J","OBJECT_ID":"2026-004B","EPOCH":"2026-03-28T23:28:41.740896","MEAN_MOTION":14.87403426,"ECCENTRICITY":0.0009662,"INCLINATION":97.8063,"RA_OF_ASC_NODE":87.8398,"ARG_OF_PERICENTER":42.3014,"MEAN_ANOMALY":317.8945,"EPHEMERIS_TYPE":0,"CLASSIFICATION_TYPE":"U","NORAD_CAT_ID":67364,"ELEMENT_SET_NO":999,"REV_AT_EPOCH":1136,"BSTAR":0.00042523,"MEAN_MOTION_DOT":3.795e-5,"MEAN_MOTION_DDOT":0},{"OBJECT_NAME":"LEMUR-2-MARIO-SOUSA","OBJECT_ID":"2026-004C","EPOCH":"2026-03-28T21:40:57.521856","MEAN_MOTION":14.87799043,"ECCENTRICITY":0.0009821,"INCLINATION":97.8001,"RA_OF_ASC_NODE":87.7357,"ARG_OF_PERICENTER":53.2091,"MEAN_ANOMALY":307.0025,"EPHEMERIS_TYPE":0,"CLASSIFICATION_TYPE":"U","NORAD_CAT_ID":67365,"ELEMENT_SET_NO":999,"REV_AT_EPOCH":1135,"BSTAR":0.00069542,"MEAN_MOTION_DOT":6.305e-5,"MEAN_MOTION_DDOT":0},{"OBJECT_NAME":"LEMUR-2-SONNENBLUME","OBJECT_ID":"2026-004E","EPOCH":"2026-03-28T23:09:41.553792","MEAN_MOTION":14.87867142,"ECCENTRICITY":0.0009483,"INCLINATION":97.799,"RA_OF_ASC_NODE":87.7984,"ARG_OF_PERICENTER":54.7725,"MEAN_ANOMALY":305.4377,"EPHEMERIS_TYPE":0,"CLASSIFICATION_TYPE":"U","NORAD_CAT_ID":67367,"ELEMENT_SET_NO":999,"REV_AT_EPOCH":1136,"BSTAR":0.00057122,"MEAN_MOTION_DOT":5.177e-5,"MEAN_MOTION_DDOT":0},{"OBJECT_NAME":"LEMUR-2-WOBLER","OBJECT_ID":"2026-004F","EPOCH":"2026-03-29T05:36:16.519392","MEAN_MOTION":14.87879164,"ECCENTRICITY":0.0009386,"INCLINATION":97.8049,"RA_OF_ASC_NODE":88.1142,"ARG_OF_PERICENTER":44.6431,"MEAN_ANOMALY":315.554,"EPHEMERIS_TYPE":0,"CLASSIFICATION_TYPE":"U","NORAD_CAT_ID":67368,"ELEMENT_SET_NO":999,"REV_AT_EPOCH":1140,"BSTAR":0.00079404,"MEAN_MOTION_DOT":7.221e-5,"MEAN_MOTION_DDOT":0},{"OBJECT_NAME":"LEMUR-2-GRAM-E-SUE","OBJECT_ID":"2026-004H","EPOCH":"2026-03-28T21:22:48.601920","MEAN_MOTION":14.88020651,"ECCENTRICITY":0.000867,"INCLINATION":97.7981,"RA_OF_ASC_NODE":87.7333,"ARG_OF_PERICENTER":57.866,"MEAN_ANOMALY":302.3396,"EPHEMERIS_TYPE":0,"CLASSIFICATION_TYPE":"U","NORAD_CAT_ID":67370,"ELEMENT_SET_NO":999,"REV_AT_EPOCH":1135,"BSTAR":0.00071697,"MEAN_MOTION_DOT":6.537e-5,"MEAN_MOTION_DDOT":0},{"OBJECT_NAME":"LEMUR-2-KATIE","OBJECT_ID":"2026-004AA","EPOCH":"2026-03-28T23:00:28.044288","MEAN_MOTION":14.89395566,"ECCENTRICITY":0.0003623,"INCLINATION":97.8048,"RA_OF_ASC_NODE":88.0082,"ARG_OF_PERICENTER":30.3217,"MEAN_ANOMALY":329.8209,"EPHEMERIS_TYPE":0,"CLASSIFICATION_TYPE":"U","NORAD_CAT_ID":67387,"ELEMENT_SET_NO":999,"REV_AT_EPOCH":1136,"BSTAR":0.00076276,"MEAN_MOTION_DOT":7.196e-5,"MEAN_MOTION_DDOT":0},{"OBJECT_NAME":"LEMUR-2-HCS-BAZUS","OBJECT_ID":"2026-004AB","EPOCH":"2026-03-28T18:04:30.828576","MEAN_MOTION":14.8940851,"ECCENTRICITY":0.00029083,"INCLINATION":97.8035,"RA_OF_ASC_NODE":87.8051,"ARG_OF_PERICENTER":31.1883,"MEAN_ANOMALY":328.9507,"EPHEMERIS_TYPE":0,"CLASSIFICATION_TYPE":"U","NORAD_CAT_ID":67388,"ELEMENT_SET_NO":999,"REV_AT_EPOCH":1133,"BSTAR":0.00062797368,"MEAN_MOTION_DOT":5.915e-5,"MEAN_MOTION_DDOT":0}]
